SYRACUSE 3A             
1 28885U 05041B   26047.54810095  .00000135  00000+0  00000+0 0  9999
2 28885   4.3350  77.3504 0003614 254.2047  58.4719  1.00270535 74538
INMARSAT 4-F2           
1 28899U 05044A   26047.42472504 -.00000255  00000+0  00000+0 0  9997
2 28899   4.9344  43.7953 0002229 304.6149  94.3901  1.00271093 74319
METEOSAT-9 (MSG-2)      
1 28912U 05049B   26047.12000352  .00000131  00000+0  00000+0 0  9995
2 28912   9.0859  55.3424 0001761 213.2676 326.3548  1.00270016  5788
EUTELSAT 174A           
1 28924U 05052A   26047.43070507  .00000013  00000+0  00000+0 0  9994
2 28924   3.9106  78.0445 0006095 251.3453 146.0462  1.00270482 51123
ECHOSTAR 10             
1 28935U 06003A   26047.58840116 -.00000051  00000+0  00000+0 0  9993
2 28935   0.0613 287.9533 0001644  22.2239 298.0169  1.00271994 73256
SPAINSAT                
1 28945U 06007A   26046.67911895 -.00000213  00000+0  00000+0 0  9990
2 28945   0.2471  90.0851 0004061 235.5553  34.3080  1.00273025 73004
JCSAT-5A                
1 29045U 06010A   26047.54767082 -.00000323  00000+0  00000+0 0  9992
2 29045   0.7946  85.9122 0002037 315.9822  73.8415  1.00272672 72562
ASTRA 1KR               
1 29055U 06012A   26047.54264093  .00000123  00000+0  00000+0 0  9996
2 29055   0.1606  81.1609 0004002 214.3737  65.3023  1.00269676 44480
GALAXY 16 (G-16)        
1 29236U 06023A   26047.51924081 -.00000123  00000+0  00000+0 0  9997
2 29236   0.0379 213.2198 0002877 126.6857 254.5010  1.00273527 71763
EUTELSAT 33F            
1 29270U 06032A   26047.54550094  .00000160  00000+0  00000+0 0  9997
2 29270   1.3484  83.7060 0003468 250.7293  41.5738  1.00275112 46091
JCSAT-3A                
1 29272U 06033A   26047.54767082 -.00000341  00000+0  00000+0 0  9999
2 29272   0.0567 274.6153 0001878  75.3103 121.7629  1.00271817 46536
SYRACUSE 3B             
1 29273U 06033B   26047.36642078  .00000026  00000+0  00000+0 0  9996
2 29273   2.5871  81.6263 0003940 249.0965 310.8897  1.00273284 71466
KOREASAT 5 (MUGUNGWHA 5)
1 29349U 06034A   26047.61824863 -.00000354  00000+0  00000+0 0  9998
2 29349   1.4711  84.6236 0002045 279.1909 118.4032  1.00271164 40117
DIRECTV 9S              
1 29494U 06043A   26047.51880746 -.00000109  00000+0  00000+0 0  9998
2 29494   2.1076  82.4318 0003160 259.6745 249.9468  1.00271448 50172
OPTUS D1                
1 29495U 06043B   26047.56642220 -.00000180  00000+0  00000+0 0  9996
2 29495   2.7224  81.1949 0003723 253.3740 167.8644  1.00271452 70914
BADR-4                  
1 29526U 06051A   26047.54411427  .00000149  00000+0  00000+0 0  9995
2 29526   1.6919  82.5113 0007399 252.5201  33.5979  1.00270511 50050
WILDBLUE-1              
1 29643U 06054A   26047.58822782 -.00000045  00000+0  00000+0 0  9998
2 29643   2.4901  82.0661 0001485 252.3636 272.6941  1.00272292 52586
SKYNET 5A               
1 30794U 07007B   26047.55780766 -.00000267  00000+0  00000+0 0  9994
2 30794   4.9941  75.2175 0003823 261.5163 105.7960  1.00272828 69495
ANIK F3                 
1 31102U 07009A   26047.58666781  .00000003  00000+0  00000+0 0  9990
2 31102   0.8842  85.4854 0002645 249.8905 263.6725  1.00272309 45351
ASTRA 1L                
1 31306U 07016A   26047.43100176 -.00000195  00000+0  00000+0 0  9992
2 31306   1.0079  82.5864 0003810  49.3809 144.9499  1.00166664 43771
GALAXY 17 (G-17)        
1 31307U 07016B   26047.52201416 -.00000202  00000+0  00000+0 0  9991
2 31307   2.6644  81.4712 0003221 238.1996 289.7502  1.00273017 68599
ZHONGXING-6B            
1 31800U 07031A   26047.61824848 -.00000154  00000+0  00000+0 0  9992
2 31800   2.1268  80.7750 0010292 237.8440 161.7458  0.99060161 68202
DIRECTV 10              
1 31862U 07032A   26047.57054772 -.00000211  00000+0  00000+0 0  9991
2 31862   0.0898 107.4652 0006175 263.3412 141.0730  0.98340171 44380
INTELSAT 11 (IS-11)     
1 32253U 07044B   26047.42508212 -.00000152  00000+0  00000+0 0  9990
2 32253   3.2490  80.1803 0006006 197.2720 318.8857  0.99049891 67254
WGS F1 (USA 195)        
1 32258U 07046A   26047.45913189 -.00000263  00000+0  00000+0 0  9996
2 32258   0.0843  87.1425 0000013 154.1586  27.9085  1.00270733 51121
SKYNET 5B               
1 32294U 07056B   26047.32991123  .00000144  00000+0  00000+0 0  9994
2 32294   4.9445  74.9582 0003960 253.2866 321.8866  1.00270099 66984
ASTRA 4A                
1 32299U 07057A   26047.32592454  .00000037  00000+0  00000+0 0  9995
2 32299   0.0607 283.8530 0002269  45.4847 299.0988  1.00272724 50432
HORIZONS-2              
1 32388U 07063B   26047.52426750 -.00000249  00000+0  00000+0 0  9994
2 32388   2.2893  82.1817 0003009 238.4554 300.7943  1.00273389 66607
THURAYA-3               
1 32404U 08001A   26047.48712536 -.00000295  00000+0  00000+0 0  9992
2 32404   5.7834  35.5639 0002206 291.5744  93.1976  1.00271499 66285
THOR 5                  
1 32487U 08006A   26047.32479786 -.00000004  00000+0  00000+0 0  9996
2 32487   0.0650 264.3287 0002507  73.0110 285.1535  1.00274371 66102
AMC-14                  
1 32708U 08011A   26047.54636762  .00000118  00000+0  00000+0 0  9996
2 32708  23.8602  21.9723 0046520 353.3657   5.4621  1.00315137 66951
DIRECTV 11              
1 32729U 08013A   26047.51924081 -.00000122  00000+0  00000+0 0  9998
2 32729   0.0475 278.6072 0000280 112.7552 202.8758  1.00273449 44387
ICO G1                  
1 32763U 08016A   26047.52045414 -.00000165  00000+0  00000+0 0  9991
2 32763   5.5138  36.4402 0003025 269.3701 295.1866  1.00268336 65335
VINASAT-1               
1 32767U 08018A   26047.54767082 -.00000324  00000+0  00000+0 0  9998
2 32767   0.0598 280.8311 0002023  90.2194 104.5864  1.00273138 65389
STAR ONE C2             
1 32768U 08018B   26047.52600084 -.00000273  00000+0  00000+0 0  9998
2 32768   0.9301  83.6626 0002777 259.4296 287.7643  1.00273472 65444
AMOS-3                  
1 32794U 08022A   26047.25277750 -.00000031  00000+0  00000+0 0  9994
2 32794   0.1408  90.2139 0002096 177.3892 325.5096  1.00273058 81126
GALAXY 18 (G-18)        
1 32951U 08024A   26047.58580113  .00000029  00000+0  00000+0 0  9993
2 32951   0.0188 200.2585 0002675 135.2739 258.9046  1.00273198 44644
ZHONGXING-9             
1 33051U 08028A   26047.60889097 -.00000245  00000+0  00000+0 0  9996
2 33051   0.4586  87.4332 0009236 227.8811 142.8511  1.00273647 64836
SKYNET 5C               
1 33055U 08030A   26047.46363858 -.00000136  00000+0  00000+0 0  9998
2 33055   3.4782  78.4999 0004651 264.3668 312.6814  1.00271520 64743
TURKSAT 3A              
1 33056U 08030B   26047.54723428  .00000150  00000+0  00000+0 0  9996
2 33056   0.0334  84.5149 0003890 268.7808  32.2011  1.00273329 51146
INTELSAT 25 (IS-25)     
1 33153U 08034A   26047.38678955 -.00000220  00000+0  00000+0 0  9993
2 33153   2.3944  81.8504 0004052 233.3332 298.9326  1.00272182 64489
ECHOSTAR 11             
1 33207U 08035A   26047.58840116 -.00000052  00000+0  00000+0 0  9999
2 33207   0.6912  85.7797 0002383 242.1341 280.4727  1.00271905 50001
SUPERBIRD-C2            
1 33274U 08038A   26047.63170377 -.00000302  00000+0  00000+0 0  9995
2 33274   2.0485  82.8497 0000568  49.1666  18.0340  1.00270577104526
INMARSAT 4-F3           
1 33278U 08039A   26047.51950081 -.00000134  00000+0  00000+0 0  9998
2 33278   4.1896  31.1230 0002772 301.6080 262.7770  1.00271453 45338
NIMIQ 4                 
1 33373U 08044A   26047.52262082 -.00000216  00000+0  00000+0 0  9999
2 33373   0.0261  90.6346 0002328 251.2592 270.7243  1.00270319 63770
GALAXY 19 (G-19)        
1 33376U 08045A   26047.59100117 -.00000135  00000+0  00000+0 0  9990
2 33376   0.0649 268.5817 0002772  64.0919 289.6447  1.00272280 63693
ASTRA 1M                
1 33436U 08057A   26047.32878455  .00000124  00000+0  00000+0 0  9995
2 33436   0.0456 294.9955 0000432 329.6905  19.1559  1.00272430 44526
EUTELSAT HOTBIRD 13C    
1 33459U 08065A   26047.45757187 -.00000279  00000+0  00000+0 0  9993
2 33459   2.6384  80.6620 0003703 259.5034 280.6832  1.00270115 46132
EXPRESS-AM44            
1 33595U 09007A   26047.60807459 -.00000085  00000+0  00000+0 0  9991
2 33595   3.1519  79.9106 0004173 247.1421  27.4293  1.00272401 51071
NSS-9                   
1 33749U 09008A   26047.57514108  .00000076  00000+0  00000+0 0  9994
2 33749   0.9479  83.9184 0002009 239.9748 212.7682  1.00271912 62316
TELSTAR 11N             
1 34111U 09009A   26047.46017189 -.00000247  00000+0  00000+0 0  9995
2 34111   0.0062 141.3057 0002073 172.6988 320.5438  1.00271038 45033
WGS F2 (USA 204)        
1 34713U 09017A   26047.40747829  .00000071  00000+0  00000+0 0  9991
2 34713   0.0125 101.7113 0001060 289.8588 319.0182  1.00278585 44409
SES-7 (PROTOSTAR 2)     
1 34941U 09027A   26047.57992545 -.00000340  00000+0  00000+0 0  9990
2 34941   0.0130  75.7635 0001945 235.0497 152.7569  1.00270714 61429
MEASAT-3A               
1 35362U 09032A   26047.57063439 -.00000107  00000+0  00000+0 0  9996
2 35362   0.0485 304.9319 0003112  30.8712 176.1649  1.00271370  6826
GOES 14                 
1 35491U 09033A   26047.58060111  .00000137  00000+0  00000+0 0  9997
2 35491   1.3761  84.6794 0001841 291.1776 190.1692  1.00117173  5382
FM-5                    
1 35493U 09034A   26047.52184082 -.00000196  00000+0  00000+0 0  9994
2 35493   0.0435 276.0299 0000781 280.5845  51.5956  1.00270414 45437
TERRESTAR-1             
1 35496U 09035A   26047.58822782 -.00000050  00000+0  00000+0 0  9999
2 35496   5.0871  48.8415 0003017 287.2939 271.1732  1.00269429 60924
ASIASAT 5               
1 35696U 09042A   26047.65374852 -.00000302  00000+0  00000+0 0  9997
2 35696   0.0648 264.8465 0001740  54.8006 162.8097  1.00268664 60506
JCSAT-12 (JCSAT-RA)     
1 35755U 09044A   26047.54767082  .00000000  00000+0  00000+0 0  9998
2 35755   0.0227 117.7918 0001891 177.0166 180.9646  1.00269673 60407
